start=new Date('2023-02-26T00:00:00.000Z').valueOf();
sats=[{"PERIOD":"95.592","MEAN_ANOMALY":"273.2034","REV_AT_EPOCH":"16275","INCLINATION":"53.0532","TIME_SYSTEM":"UTC","DECAY_DATE":null,"MEAN_ELEMENT_THEORY":"SGP4","MEAN_MOTION":"15.06407457","MEAN_MOTION_DOT":"0.00001333","ELEMENT_SET_NO":"999","SEMIMAJOR_AXIS":"6925.326","NORAD_CAT_ID":"45377","APOAPSIS":"548.698","ECCENTRICITY":"0.00021760","EPHEMERIS_TYPE":"0","BSTAR":"0.00010839000000","RA_OF_ASC_NODE":"99.9979","OBJECT_TYPE":"PAYLOAD","OBJECT_NAME":"STARLINK-1305","SITE":"AFETR","MEAN_MOTION_DDOT":"0.0000000000000","ARG_OF_PERICENTER":"86.9204","FILE":"3839003","CLASSIFICATION_TYPE":"U","COUNTRY_CODE":"US","EPOCH":"2023-02-25T19:51:55.779552","TLE_LINE1":"1 45377U 20019T   23056.82772893  .00001333  00000-0  10839-3 0  9994","REF_FRAME":"TEME","PERIAPSIS":"545.684","TLE_LINE2":"2 45377  53.0532  99.9979 0002176  86.9204 273.2034 15.06407457162754","RCS_SIZE":"LARGE","LAUNCH_DATE":"2020-03-18","GP_ID":"226909272","CENTER_NAME":"EARTH","OBJECT_ID":"2020-019T"},{"RCS_SIZE":"LARGE","GP_ID":"226909522","LAUNCH_DATE":"2020-03-18","CENTER_NAME":"EARTH","OBJECT_ID":"2020-019U","PERIAPSIS":"546.038","REF_FRAME":"TEME","TLE_LINE2":"2 45378  53.0531 100.0525 0001694  92.0695 268.0487 15.06400760162755","EPOCH":"2023-02-25T19:35:58.981632","COUNTRY_CODE":"US","TLE_LINE1":"1 45378U 20019U   23056.81665488 -.00012537  00000-0 -82421-3 0  9991","CLASSIFICATION_TYPE":"U","FILE":"3839003","ECCENTRICITY":"0.00016940","EPHEMERIS_TYPE":"0","RA_OF_ASC_NODE":"100.0525","OBJECT_TYPE":"PAYLOAD","BSTAR":"-0.00082421000000","OBJECT_NAME":"STARLINK-1310","ARG_OF_PERICENTER":"92.0695","MEAN_MOTION_DDOT":"0.0000000000000","SITE":"AFETR","APOAPSIS":"548.384","DECAY_DATE":null,"TIME_SYSTEM":"UTC","MEAN_ELEMENT_THEORY":"SGP4","MEAN_MOTION_DOT":"-0.00012537","MEAN_MOTION":"15.06400760","SEMIMAJOR_AXIS":"6925.346","NORAD_CAT_ID":"45378","ELEMENT_SET_NO":"999","PERIOD":"95.592","MEAN_ANOMALY":"268.0487","REV_AT_EPOCH":"16275","INCLINATION":"53.0531"},{"OBJECT_NAME":"STARLINK-1319","ARG_OF_PERICENTER":"91.5505","SITE":"AFETR","MEAN_MOTION_DDOT":"0.0000000000000","ECCENTRICITY":"0.00012520","EPHEMERIS_TYPE":"0","OBJECT_TYPE":"PAYLOAD","RA_OF_ASC_NODE":"100.0361","BSTAR":"0.00024392000000","APOAPSIS":"548.063","MEAN_MOTION_DOT":"0.00003354","MEAN_MOTION":"15.06405714","NORAD_CAT_ID":"45379","SEMIMAJOR_AXIS":"6925.331","ELEMENT_SET_NO":"999","TIME_SYSTEM":"UTC","DECAY_DATE":null,"MEAN_ELEMENT_THEORY":"SGP4","REV_AT_EPOCH":"16275","INCLINATION":"53.0530","PERIOD":"95.592","MEAN_ANOMALY":"268.5628","CENTER_NAME":"EARTH","OBJECT_ID":"2020-019V","RCS_SIZE":"LARGE","GP_ID":"226910269","LAUNCH_DATE":"2020-03-18","TLE_LINE2":"2 45379  53.0530 100.0361 0001252  91.5505 268.5628 15.06405714162753","PERIAPSIS":"546.329","REF_FRAME":"TEME","TLE_LINE1":"1 45379U 20019V   23056.82035369  .00003354  00000-0  24392-3 0  9990","EPOCH":"2023-02-25T19:41:18.558816","COUNTRY_CODE":"US","CLASSIFICATION_TYPE":"U","FILE":"3839003"},{"SITE":"AFETR","MEAN_MOTION_DDOT":"0.0000000000000","ARG_OF_PERICENTER":"95.4482","OBJECT_NAME":"STARLINK-1207","BSTAR":"-0.00074330000000","OBJECT_TYPE":"PAYLOAD","RA_OF_ASC_NODE":"80.3436","EPHEMERIS_TYPE":"0","ECCENTRICITY":"0.00021180","APOAPSIS":"548.672","ELEMENT_SET_NO":"999","SEMIMAJOR_AXIS":"6925.340","NORAD_CAT_ID":"45380","MEAN_MOTION":"15.06402850","MEAN_MOTION_DOT":"-0.00011337","MEAN_ELEMENT_THEORY":"SGP4","DECAY_DATE":null,"TIME_SYSTEM":"UTC","INCLINATION":"53.0546","REV_AT_EPOCH":"16301","MEAN_ANOMALY":"264.6748","PERIOD":"95.592","OBJECT_ID":"2020-019W","CENTER_NAME":"EARTH","LAUNCH_DATE":"2020-03-18","GP_ID":"226911017","RCS_SIZE":"LARGE","TLE_LINE2":"2 45380  53.0546  80.3436 0002118  95.4482 264.6748 15.06402850163012","REF_FRAME":"TEME","PERIAPSIS":"545.738","TLE_LINE1":"1 45380U 20019W   23056.75215131 -.00011337  00000-0 -74330-3 0  9990","COUNTRY_CODE":"US","EPOCH":"2023-02-25T18:03:05.873184","CLASSIFICATION_TYPE":"U","FILE":"3839003"},{"INCLINATION":"53.0524","REV_AT_EPOCH":"16301","MEAN_ANOMALY":"272.8402","PERIOD":"95.592","SEMIMAJOR_AXIS":"6925.361","NORAD_CAT_ID":"45381","ELEMENT_SET_NO":"999","MEAN_MOTION_DOT":"-0.00001158","MEAN_MOTION":"15.06395855","MEAN_ELEMENT_THEORY":"SGP4","TIME_SYSTEM":"UTC","DECAY_DATE":null,"APOAPSIS":"548.645","ARG_OF_PERICENTER":"87.2822","MEAN_MOTION_DDOT":"0.0000000000000","SITE":"AFETR","OBJECT_NAME":"STARLINK-1258","OBJECT_TYPE":"PAYLOAD","RA_OF_ASC_NODE":"80.2958","BSTAR":"-0.00005885400000","ECCENTRICITY":"0.00020490","EPHEMERIS_TYPE":"0","FILE":"3839003","CLASSIFICATION_TYPE":"U","TLE_LINE1":"1 45381U 20019X   23056.76320779 -.00001158  00000-0 -58854-4 0  9991","EPOCH":"2023-02-25T18:19:01.153056","COUNTRY_CODE":"US","TLE_LINE2":"2 45381  53.0524  80.2958 0002049  87.2822 272.8402 15.06395855163011","PERIAPSIS":"545.807","REF_FRAME":"TEME","OBJECT_ID":"2020-019X","CENTER_NAME":"EARTH","GP_ID":"226909773","LAUNCH_DATE":"2020-03-18","RCS_SIZE":"LARGE"},{"APOAPSIS":"523.829","OBJECT_NAME":"STARLINK-1264","MEAN_MOTION_DDOT":"0.0000000000000","SITE":"AFETR","ARG_OF_PERICENTER":"69.0866","ECCENTRICITY":"0.00040110","EPHEMERIS_TYPE":"0","BSTAR":"0.00128520000000","RA_OF_ASC_NODE":"76.1874","OBJECT_TYPE":"PAYLOAD","REV_AT_EPOCH":"16289","INCLINATION":"53.0504","PERIOD":"95.051","MEAN_ANOMALY":"291.0556","MEAN_MOTION":"15.14973357","MEAN_MOTION_DOT":"0.00024041","ELEMENT_SET_NO":"999","NORAD_CAT_ID":"45382","SEMIMAJOR_AXIS":"6899.196","TIME_SYSTEM":"UTC","DECAY_DATE":null,"MEAN_ELEMENT_THEORY":"SGP4","TLE_LINE2":"2 45382  53.0504  76.1874 0004011  69.0866 291.0556 15.14973357162894","REF_FRAME":"TEME","PERIAPSIS":"518.294","CENTER_NAME":"EARTH","OBJECT_ID":"2020-019Y","RCS_SIZE":"LARGE","LAUNCH_DATE":"2020-03-18","GP_ID":"226910021","CLASSIFICATION_TYPE":"U","FILE":"3839003","TLE_LINE1":"1 45382U 20019Y   23056.74437404  .00024041  00000-0  12852-2 0  9994","COUNTRY_CODE":"US","EPOCH":"2023-02-25T17:51:53.917056"},{"MEAN_ELEMENT_THEORY":"SGP4","DECAY_DATE":null,"TIME_SYSTEM":"UTC","SEMIMAJOR_AXIS":"6925.389","NORAD_CAT_ID":"45383","ELEMENT_SET_NO":"999","MEAN_MOTION_DOT":"-0.00011940","MEAN_MOTION":"15.06386967","MEAN_ANOMALY":"258.0765","PERIOD":"95.593","INCLINATION":"53.0539","REV_AT_EPOCH":"16301","RA_OF_ASC_NODE":"80.3314","OBJECT_TYPE":"PAYLOAD","BSTAR":"-0.00078424000000","ECCENTRICITY":"0.00022930","EPHEMERIS_TYPE":"0","ARG_OF_PERICENTER":"102.0481","MEAN_MOTION_DDOT":"0.0000000000000","SITE":"AFETR","OBJECT_NAME":"STARLINK-1266","APOAPSIS":"548.841","EPOCH":"2023-02-25T18:08:23.786304","COUNTRY_CODE":"US","TLE_LINE1":"1 45383U 20019Z   23056.75583086 -.00011940  00000-0 -78424-3 0  9998","CLASSIFICATION_TYPE":"U","FILE":"3839003","GP_ID":"226910770","LAUNCH_DATE":"2020-03-18","RCS_SIZE":"LARGE","OBJECT_ID":"2020-019Z","CENTER_NAME":"EARTH","PERIAPSIS":"545.666","REF_FRAME":"TEME","TLE_LINE2":"2 45383  53.0539  80.3314 0002293 102.0481 258.0765 15.06386967163016"},{"APOAPSIS":"548.231","BSTAR":"0.00090224000000","RA_OF_ASC_NODE":"81.2654","OBJECT_TYPE":"PAYLOAD","EPHEMERIS_TYPE":"0","ECCENTRICITY":"0.00015540","SITE":"AFETR","MEAN_MOTION_DDOT":"0.0000000000000","ARG_OF_PERICENTER":"105.9610","OBJECT_NAME":"STARLINK-1267","MEAN_ANOMALY":"254.1550","PERIOD":"95.591","INCLINATION":"53.0536","REV_AT_EPOCH":"16298","MEAN_ELEMENT_THEORY":"SGP4","TIME_SYSTEM":"UTC","DECAY_DATE":null,"ELEMENT_SET_NO":"999","SEMIMAJOR_AXIS":"6925.289","NORAD_CAT_ID":"45384","MEAN_MOTION":"15.06419283","MEAN_MOTION_DOT":"0.00013190","REF_FRAME":"TEME","PERIAPSIS":"546.078","TLE_LINE2":"2 45384  53.0536  81.2654 0001554 105.9610 254.1550 15.06419283162988","LAUNCH_DATE":"2020-03-18","GP_ID":"226876404","RCS_SIZE":"LARGE","OBJECT_ID":"2020-019AA","CENTER_NAME":"EARTH","FILE":"3838299","CLASSIFICATION_TYPE":"U","COUNTRY_CODE":"US","EPOCH":"2023-02-25T13:04:29.546688","TLE_LINE1":"1 45384U 20019AA  23056.54478642  .00013190  00000-0  90224-3 0  9996"},{"APOAPSIS":"548.412","ARG_OF_PERICENTER":"102.8685","SITE":"AFETR","MEAN_MOTION_DDOT":"0.0000000000000","OBJECT_NAME":"STARLINK-1272","RA_OF_ASC_NODE":"83.3330","OBJECT_TYPE":"PAYLOAD","BSTAR":"0.00092974000000","EPHEMERIS_TYPE":"0","ECCENTRICITY":"0.00017840","INCLINATION":"53.0538","REV_AT_EPOCH":"16291","MEAN_ANOMALY":"257.2503","PERIOD":"95.591","NORAD_CAT_ID":"45386","SEMIMAJOR_AXIS":"6925.312","ELEMENT_SET_NO":"999","MEAN_MOTION_DOT":"0.00013598","MEAN_MOTION":"15.06411926","MEAN_ELEMENT_THEORY":"SGP4","DECAY_DATE":null,"TIME_SYSTEM":"UTC","TLE_LINE2":"2 45386  53.0538  83.3330 0001784 102.8685 257.2503 15.06411926162910","PERIAPSIS":"545.942","REF_FRAME":"TEME","OBJECT_ID":"2020-019AC","CENTER_NAME":"EARTH","GP_ID":"226876397","LAUNCH_DATE":"2020-03-18","RCS_SIZE":"LARGE","CLASSIFICATION_TYPE":"U","FILE":"3838299","TLE_LINE1":"1 45386U 20019AC  23056.08499626  .00013598  00000-0  92974-3 0  9998","EPOCH":"2023-02-25T02:02:23.676864","COUNTRY_CODE":"US"},{"OBJECT_ID":"2020-019AD","CENTER_NAME":"EARTH","LAUNCH_DATE":"2020-03-18","GP_ID":"226909523","RCS_SIZE":"LARGE","TLE_LINE2":"2 45387  53.0539  80.2577 0001578  89.0285 271.0884 15.06400145163013","REF_FRAME":"TEME","PERIAPSIS":"546.120","TLE_LINE1":"1 45387U 20019AD  23056.77056969 -.00001929  00000-0 -11062-3 0  9990","COUNTRY_CODE":"US","EPOCH":"2023-02-25T18:29:37.221216","CLASSIFICATION_TYPE":"U","FILE":"3839003","SITE":"AFETR","MEAN_MOTION_DDOT":"0.0000000000000","ARG_OF_PERICENTER":"89.0285","OBJECT_NAME":"STARLINK-1274","BSTAR":"-0.00011062000000","OBJECT_TYPE":"PAYLOAD","RA_OF_ASC_NODE":"80.2577","EPHEMERIS_TYPE":"0","ECCENTRICITY":"0.00015780","APOAPSIS":"548.306","ELEMENT_SET_NO":"999","SEMIMAJOR_AXIS":"6925.348","NORAD_CAT_ID":"45387","MEAN_MOTION":"15.06400145","MEAN_MOTION_DOT":"-0.00001929","MEAN_ELEMENT_THEORY":"SGP4","TIME_SYSTEM":"UTC","DECAY_DATE":null,"INCLINATION":"53.0539","REV_AT_EPOCH":"16301","MEAN_ANOMALY":"271.0884","PERIOD":"95.592"}];
